NORAD_CAT_ID,OBJECT_NAME,OBJECT_TYPE,EPOCH,MEAN_MOTION,ECCENTRICITY,INCLINATION,RA_OF_ASC_NODE,ARG_OF_PERICENTER,MEAN_ANOMALY,BSTAR,MEAN_MOTION_DOT,MEAN_MOTION_DDOT,TLE_LINE0,TLE_LINE1,TLE_LINE2,SEMIMAJOR_AXIS,PERIOD,APOGEE,PERIGEE,DECAYED
53932.0,STARLINK-4772,PAYLOAD,2024-04-28 06:27:29,15.08841675,0.0001356,53.2176,113.7363,94.7128,265.4019,-8.2056e-05,-1.594e-05,0.0,0 STARLINK-4772,1 53932U 22119AY  24119.26908674 -.00001594  00000-0 -82056-4 0  9992,2 53932  53.2176 113.7363 0001356  94.7128 265.4019 15.08841675 89322,6917.875,95.437,540.678,538.802,0.0
53932.0,STARLINK-4772,PAYLOAD,2024-04-28 15:59:42,15.08895539,0.0001101,53.2179,111.9552,93.4023,266.7095,0.00034476,5.211e-05,0.0,0 STARLINK-4772,1 53932U 22119AY  24119.66646961  .00005211  00000-0  34476-3 0  9994,2 53932  53.2179 111.9552 0001101  93.4023 266.7095 15.08895539 88957,6917.711,95.434,540.337,538.814,0.0
53932.0,STARLINK-4772,PAYLOAD,2024-04-28 22:21:16,15.08876965,0.0002163,53.2177,110.7651,102.4728,257.6506,0.00029663,4.441e-05,0.0,0 STARLINK-4772,1 53932U 22119AY  24119.93143862  .00004441  00000-0  29663-3 0  9992,2 53932  53.2177 110.7651 0002163 102.4728 257.6506 15.08876965 89425,6917.767,95.435,541.129,538.136,0.0
53932.0,STARLINK-4772,PAYLOAD,2024-04-29 04:42:52,15.08822769,0.0001453,53.2175,109.5755,91.9478,268.1681,-0.00015922,-2.82e-05,0.0,0 STARLINK-4772,1 53932U 22119AY  24120.19644457 -.00002820  00000-0 -15922-3 0  9992,2 53932  53.2175 109.5755 0001453  91.9478 268.1681 15.08822769 89030,6917.933,95.439,540.803,538.793,0.0
53932.0,STARLINK-4772,PAYLOAD,2024-04-29 06:18:15,15.08823412,0.0001404,53.2174,109.2783,88.9763,271.139,-0.00015077,-2.686e-05,0.0,0 STARLINK-4772,1 53932U 22119AY  24120.26268450 -.00002686  00000-0 -15077-3 0  9996,2 53932  53.2174 109.2783 0001404  88.9763 271.1390 15.08823412 89471,6917.931,95.439,540.767,538.825,0.0
53932.0,STARLINK-4772,PAYLOAD,2024-04-29 22:12:07,15.08821344,0.0001342,53.2192,106.3072,90.0567,270.0579,-7.4359e-05,-1.47e-05,0.0,0 STARLINK-4772,1 53932U 22119AY  24120.92508783 -.00001470  00000-0 -74359-4 0  9994,2 53932  53.2192 106.3072 0001342  90.0567 270.0579 15.08821344 89577,6917.937,95.439,540.731,538.874,0.0
53932.0,STARLINK-4772,PAYLOAD,2024-04-30 04:33:40,15.08820565,0.0001324,53.2175,105.1161,89.3702,270.7441,-2.4933e-05,-6.84e-06,0.0,0 STARLINK-4772,1 53932U 22119AY  24121.19004992 -.00000684  00000-0 -24933-4 0  9996,2 53932  53.2175 105.1161 0001324  89.3702 270.7441 15.08820565 89182,6917.94,95.439,540.721,538.889,0.0
53932.0,STARLINK-4772,PAYLOAD,2024-04-30 06:09:03,15.08820239,0.0001407,53.2176,104.8191,101.6443,258.4707,8.0162e-07,-2.75e-06,0.0,0 STARLINK-4772,1 53932U 22119AY  24121.25628870 -.00000275  00000-0  80162-6 0  9993,2 53932  53.2176 104.8191 0001407 101.6443 258.4707 15.08820239 89629,6917.941,95.439,540.779,538.832,0.0
53932.0,STARLINK-4772,PAYLOAD,2024-04-30 15:41:22,15.08830379,0.0001382,53.2179,103.0348,91.7148,268.4003,-5.8414e-05,-1.217e-05,0.0,0 STARLINK-4772,1 53932U 22119AY  24121.65372818 -.00001217  00000-0 -58414-4 0  9996,2 53932  53.2179 103.0348 0001382  91.7148 268.4003 15.08830379 89255,6917.91,95.438,540.731,538.819,0.0
53932.0,STARLINK-4772,PAYLOAD,2024-05-01 04:24:26,15.08854164,0.0001258,53.2172,100.6553,83.7391,276.3744,-0.0003093,-5.209e-05,0.0,0 STARLINK-4772,1 53932U 22119AY  24122.18363708 -.00005209  00000-0 -30930-3 0  9990,2 53932  53.2172 100.6553 0001258  83.7391 276.3744 15.08854164 89339,6917.837,95.437,540.572,538.832,0.0
53932.0,STARLINK-4772,PAYLOAD,2024-05-01 09:10:36,15.08833502,0.0001436,53.2172,99.7631,91.3117,268.8039,7.1927e-05,8.57e-06,0.0,0 STARLINK-4772,1 53932U 22119AY  24122.38236261  .00000857  00000-0  71927-4 0  9999,2 53932  53.2172  99.7631 0001436  91.3117 268.8039 15.08833502 89362,6917.9,95.438,540.759,538.772,0.0
53932.0,STARLINK-4772,PAYLOAD,2024-05-01 15:32:08,15.08830532,0.0001447,53.2176,98.5739,87.3045,272.8113,0.00024103,3.549e-05,0.0,0 STARLINK-4772,1 53932U 22119AY  24122.64732362  .00003549  00000-0  24103-3 0  9995,2 53932  53.2176  98.5739 0001447  87.3045 272.8113 15.08830532 89839,6917.909,95.438,540.775,538.773,0.0
53932.0,STARLINK-4772,PAYLOAD,2024-05-02 07:26:00,15.08836555,0.0001516,53.218,95.6002,87.106,273.0106,0.00019408,2.802e-05,0.0,0 STARLINK-4772,1 53932U 22119AY  24123.30972769  .00002802  00000-0  19408-3 0  9999,2 53932  53.2180  95.6002 0001516  87.1060 273.0106 15.08836555 89934,6917.891,95.438,540.805,538.707,0.0
53932.0,STARLINK-4772,PAYLOAD,2024-05-02 15:22:55,15.08841631,0.0001553,53.2184,94.1139,87.4307,272.6863,0.00021674,3.163e-05,0.0,0 STARLINK-4772,1 53932U 22119AY  24123.64092504  .00003163  00000-0  21674-3 0  9995,2 53932  53.2184  94.1139 0001553  87.4307 272.6863 15.08841631 89555,6917.875,95.437,540.815,538.666,0.0
53932.0,STARLINK-4772,PAYLOAD,2024-05-03 04:06:00,15.08851687,0.0001335,53.2167,91.7338,92.3662,267.7483,0.00024085,3.548e-05,0.0,0 STARLINK-4772,1 53932U 22119AY  24124.17083682  .00003548  00000-0  24085-3 0  9997,2 53932  53.2167  91.7338 0001335  92.3662 267.7483 15.08851687 89631,6917.845,95.437,540.633,538.786,0.0
53932.0,STARLINK-4772,PAYLOAD,2024-05-03 15:13:41,15.08865782,0.0001019,53.2146,89.6525,77.9381,282.1726,0.00032556,4.901e-05,0.0,0 STARLINK-4772,1 53932U 22119AY  24124.63450685  .00004901  00000-0  32556-3 0  9995,2 53932  53.2146  89.6525 0001019  77.9381 282.1726 15.08865782 89708,6917.802,95.436,540.372,538.962,0.0
53932.0,STARLINK-4772,PAYLOAD,2024-05-03 21:35:14,15.08853168,0.00031,53.2154,88.4638,80.4524,279.6818,0.0001533,2.153e-05,0.0,0 STARLINK-4772,1 53932U 22119AY  24124.89947833  .00002153  00000-0  15330-3 0  9997,2 53932  53.2154  88.4638 0003100  80.4524 279.6818 15.08853168 90171,6917.84,95.437,541.85,537.561,0.0
53932.0,STARLINK-4772,PAYLOAD,2024-05-04 03:56:48,15.0882335,0.0001288,53.2163,87.2728,86.7574,273.3566,-0.00027559,-4.669e-05,0.0,0 STARLINK-4772,1 53932U 22119AY  24125.16445039 -.00004669  00000-0 -27559-3 0  9991,2 53932  53.2163  87.2728 0001288  86.7574 273.3566 15.08823350 89783,6917.931,95.439,540.687,538.905,0.0
53932.0,STARLINK-4772,PAYLOAD,2024-05-04 15:04:30,15.08828501,0.000137,53.2177,85.1923,86.2281,273.8867,-0.00013164,-2.382e-05,0.0,0 STARLINK-4772,1 53932U 22119AY  24125.62813252 -.00002382  00000-0 -13164-3 0  9995,2 53932  53.2177  85.1923 0001370  86.2281 273.8867 15.08828501 89854,6917.916,95.438,540.728,538.833,0.0
53932.0,STARLINK-4772,PAYLOAD,2024-05-05 06:58:22,15.08837102,0.0001375,53.217,82.2187,77.2763,282.8383,0.00046433,7.109e-05,0.0,0 STARLINK-4772,1 53932U 22119AY  24126.29053534  .00007109  00000-0  46433-3 0  9993,2 53932  53.2170  82.2187 0001375  77.2763 282.8383 15.08837102 89958,6917.889,95.438,540.705,538.803,0.0
53932.0,STARLINK-4772,PAYLOAD,2024-05-06 03:38:22,15.08862598,0.0001393,53.2175,78.3527,75.8752,284.2395,0.0010342,0.0001622,0.0,0 STARLINK-4772,1 53932U 22119AY  24127.15165334  .00016220  00000-0  10342-2 0  9994,2 53932  53.2175  78.3527 0001393  75.8752 284.2395 15.08862598 90081,6917.811,95.436,540.64,538.713,0.0
53932.0,STARLINK-4772,PAYLOAD,2024-05-06 13:10:40,15.08879673,0.0001397,53.218,76.5683,77.7136,282.4012,0.0012258,0.00019296,0.0,0 STARLINK-4772,1 53932U 22119AY  24127.54908434  .00019296  00000-0  12258-2 0  9997,2 53932  53.2180  76.5683 0001397  77.7136 282.4012 15.08879673 90573,6917.759,95.435,540.591,538.658,0.0
53932.0,STARLINK-4772,PAYLOAD,2024-05-07 03:29:09,15.08844458,0.0001379,53.218,73.892,95.6378,264.4771,0.00014278,1.985e-05,0.0,0 STARLINK-4772,1 53932U 22119AY  24128.14524808  .00001985  00000-0  14278-3 0  9994,2 53932  53.2180  73.8920 0001379  95.6378 264.4771 15.08844458 90232,6917.867,95.437,540.686,538.778,0.0
53932.0,STARLINK-4772,PAYLOAD,2024-05-07 13:01:28,15.08847407,0.0001354,53.2185,72.1083,91.4407,268.674,0.00086463,0.00013502,0.0,0 STARLINK-4772,1 53932U 22119AY  24128.54268939  .00013502  00000-0  86463-3 0  9991,2 53932  53.2185  72.1083 0001354  91.4407 268.6740 15.08847407 90722,6917.858,95.437,540.659,538.786,0.0
53932.0,STARLINK-4772,PAYLOAD,2024-05-08 03:19:57,15.08829865,0.0001657,53.2197,69.4367,110.292,249.825,0.00041686,6.351e-05,0.0,0 STARLINK-4772,1 53932U 22119AY  24129.13885621  .00006351  00000-0  41686-3 0  9992,2 53932  53.2197  69.4367 0001657 110.2920 249.8250 15.08829865 90382,6917.911,95.438,540.923,538.63,0.0
53932.0,STARLINK-4772,PAYLOAD,2024-05-08 12:52:15,15.08852661,0.0001325,53.2192,67.6492,98.1649,261.9493,0.0010863,0.00017049,0.0,0 STARLINK-4772,1 53932U 22119AY  24129.53629321  .00017049  00000-0  10863-2 0  9997,2 53932  53.2192  67.6492 0001325  98.1649 261.9493 15.08852661 90441,6917.842,95.437,540.623,538.79,0.0
53932.0,STARLINK-4772,PAYLOAD,2024-05-09 04:46:07,15.08849004,0.000154,53.2182,64.6761,90.2255,269.8913,0.00058547,9.044e-05,0.0,0 STARLINK-4772,1 53932U 22119AY  24130.19869482  .00009044  00000-0  58547-3 0  9993,2 53932  53.2182  64.6761 0001540  90.2255 269.8913 15.08849004 90543,6917.853,95.437,540.783,538.653,0.0
53932.0,STARLINK-4772,PAYLOAD,2024-05-09 12:43:02,15.08864818,0.000135,53.2172,63.1896,73.4436,286.6705,0.00099652,0.00015618,0.0,0 STARLINK-4772,1 53932U 22119AY  24130.52989030  .00015618  00000-0  99652-3 0  9998,2 53932  53.2172  63.1896 0001350  73.4436 286.6705 15.08864818 91028,6917.805,95.436,540.603,538.736,0.0
53932.0,STARLINK-4772,PAYLOAD,2024-05-10 03:01:31,15.08850328,0.0001432,53.2188,60.5126,80.1608,279.9546,0.00089049,0.00013917,0.0,0 STARLINK-4772,1 53932U 22119AY  24131.12605387  .00013917  00000-0  89049-3 0  9994,2 53932  53.2188  60.5126 0001432  80.1608 279.9546 15.08850328 90689,6917.849,95.437,540.704,538.723,0.0
53932.0,STARLINK-4772,PAYLOAD,2024-05-10 12:33:49,15.08860707,0.0001401,53.2189,58.7295,83.0001,277.1151,0.0013192,0.00020781,0.0,0 STARLINK-4772,1 53932U 22119AY  24131.52349173  .00020781  00000-0  13192-2 0  9998,2 53932  53.2189  58.7295 0001401  83.0001 277.1151 15.08860707 91170,6917.817,95.436,540.651,538.713,0.0
